[
{"name":"Young Parent Program - Mountain View- Los Altos Adult Education","street":"333 Moffett Blvd","city":"Mountain View","state":"CA","zip":"94043"},
{"name":"Education-Portal.com","street":"100 View St. #202","city":"Mountain View","state":"CA","zip":"94041"},
{"name":"Newark Adult Education","street":"36120 Ruschin Dr","city":"Newark","state":"CA","zip":"94560"},
{"name":"Tri-Cities One-Stop Career Center - Newark","street":"39399 Cherry St","city":"Newark","state":"CA","zip":"94560"},
{"name":"Mid-Peninsula Housing Coalition","street":"658 Bair Island Road, Suite 300","city":"Redwood City","state":"CA","zip":"94063"},
{"name":"Newark Adult Education","street":"36120 Ruschin Dr","city":"Newark","state":"CA","zip":"94560"},
{"name":"Omega Teaching","street":"1030 Curtis Street, Suite 201","city":"Menlo Park","state":"CA","zip":"94024"},
{"name":"Young Parent Program - Mountain View- Los Altos Adult Education","street":"333 Moffett Blvd","city":"Mountain View","state":"CA","zip":"94043"},
{"name":"Education-Portal.com","street":"100 View St. #202","city":"Mountain View","state":"CA","zip":"94041"},
{"name":"Newark Adult Education","street":"36120 Ruschin Dr","city":"Newark","state":"CA","zip":"94560"},
{"name":"Prenatal Advantage Black Infant Health - San Mateo Health Services Agency","street":"2415 University Ave","city":"East Palo Alto","state":"CA","zip":"94303"},
{"name":"Sacramento Valley Optometric Society (SVOS)","street":"","city":"Sacramento","state":"CA","zip":"95818"},
{"name":"Community Pregnancy Center","street":"836 W El Camino Real","city":"Mountain View","state":"CA","zip":"94040"},
{"name":"Second Chance Cabrillo Center","street":"7643 Thornton Ave","city":"Fremont","state":"CA","zip":"94560"},
{"name":"Second Chance Newark Center","street":"6330 Thornton Ave","city":"Newark","state":"CA","zip":"94560"},
{"name":"STD/HIV Services - San Mateo County Health Services Clinic","street":"222 West 39th Ave","city":"San Mateo","state":"CA","zip":"94403"},
{"name":"Lucile Packard Children's Hospital","street":"725 Welch Road","city":"Palo Alto","state":"CA","zip":"94304"}
]